[{"OBJECT_NAME":"IRIDIUM 151","OBJECT_ID":"2017-083E","EPOCH":"2026-03-29T04:52:35.196096","MEAN_MOTION":14.34218192,"ECCENTRICITY":0.0002219,"INCLINATION":86.4025,"RA_OF_ASC_NODE":355.4915,"ARG_OF_PERICENTER":85.2773,"MEAN_ANOMALY":274.8676,"EPHEMERIS_TYPE":0,"CLASSIFICATION_TYPE":"U","NORAD_CAT_ID":43074,"ELEMENT_SET_NO":999,"REV_AT_EPOCH":43267,"BSTAR":3.3286e-5,"MEAN_MOTION_DOT":1.13e-6,"MEAN_MOTION_DDOT":0},{"OBJECT_NAME":"IRIDIUM 134","OBJECT_ID":"2017-083F","EPOCH":"2026-03-29T04:06:55.327680","MEAN_MOTION":14.34218437,"ECCENTRICITY":0.0002152,"INCLINATION":86.4027,"RA_OF_ASC_NODE":355.5117,"ARG_OF_PERICENTER":88.7695,"MEAN_ANOMALY":271.3747,"EPHEMERIS_TYPE":0,"CLASSIFICATION_TYPE":"U","NORAD_CAT_ID":43075,"ELEMENT_SET_NO":999,"REV_AT_EPOCH":43263,"BSTAR":0.00011399,"MEAN_MOTION_DOT":3.39e-6,"MEAN_MOTION_DDOT":0},{"OBJECT_NAME":"IRIDIUM 137","OBJECT_ID":"2017-083G","EPOCH":"2026-03-29T04:25:11.741952","MEAN_MOTION":14.34216619,"ECCENTRICITY":0.0002657,"INCLINATION":86.4026,"RA_OF_ASC_NODE":355.5975,"ARG_OF_PERICENTER":84.4324,"MEAN_ANOMALY":275.7174,"EPHEMERIS_TYPE":0,"CLASSIFICATION_TYPE":"U","NORAD_CAT_ID":43076,"ELEMENT_SET_NO":999,"REV_AT_EPOCH":43270,"BSTAR":0.00011954,"MEAN_MOTION_DOT":3.55e-6,"MEAN_MOTION_DDOT":0},{"OBJECT_NAME":"IRIDIUM 141","OBJECT_ID":"2017-083H","EPOCH":"2026-03-29T04:16:03.084672","MEAN_MOTION":14.34215115,"ECCENTRICITY":0.000213,"INCLINATION":86.4024,"RA_OF_ASC_NODE":355.4353,"ARG_OF_PERICENTER":83.5307,"MEAN_ANOMALY":276.6131,"EPHEMERIS_TYPE":0,"CLASSIFICATION_TYPE":"U","NORAD_CAT_ID":43077,"ELEMENT_SET_NO":999,"REV_AT_EPOCH":43270,"BSTAR":0.0001434,"MEAN_MOTION_DOT":4.21e-6,"MEAN_MOTION_DDOT":0},{"OBJECT_NAME":"IRIDIUM 153","OBJECT_ID":"2017-083J","EPOCH":"2026-03-29T04:47:39.344352","MEAN_MOTION":14.34218634,"ECCENTRICITY":0.0001853,"INCLINATION":86.3979,"RA_OF_ASC_NODE":323.9335,"ARG_OF_PERICENTER":84.727,"MEAN_ANOMALY":275.4138,"EPHEMERIS_TYPE":0,"CLASSIFICATION_TYPE":"U","NORAD_CAT_ID":43078,"ELEMENT_SET_NO":999,"REV_AT_EPOCH":43381,"BSTAR":6.8775e-5,"MEAN_MOTION_DOT":2.12e-6,"MEAN_MOTION_DDOT":0},{"OBJECT_NAME":"IRIDIUM 131","OBJECT_ID":"2017-083K","EPOCH":"2026-03-29T03:57:47.064384","MEAN_MOTION":14.34219428,"ECCENTRICITY":0.0002163,"INCLINATION":86.4029,"RA_OF_ASC_NODE":355.6212,"ARG_OF_PERICENTER":82.2776,"MEAN_ANOMALY":277.8666,"EPHEMERIS_TYPE":0,"CLASSIFICATION_TYPE":"U","NORAD_CAT_ID":43079,"ELEMENT_SET_NO":999,"REV_AT_EPOCH":43263,"BSTAR":9.7147e-5,"MEAN_MOTION_DOT":2.92e-6,"MEAN_MOTION_DDOT":0},{"OBJECT_NAME":"IRIDIUM 144","OBJECT_ID":"2018-030A","EPOCH":"2026-03-29T03:16:19.337088","MEAN_MOTION":14.34217607,"ECCENTRICITY":0.0002228,"INCLINATION":86.3976,"RA_OF_ASC_NODE":323.8912,"ARG_OF_PERICENTER":88.855,"MEAN_ANOMALY":271.2901,"EPHEMERIS_TYPE":0,"CLASSIFICATION_TYPE":"U","NORAD_CAT_ID":43249,"ELEMENT_SET_NO":999,"REV_AT_EPOCH":41866,"BSTAR":7.3253e-5,"MEAN_MOTION_DOT":2.25e-6,"MEAN_MOTION_DDOT":0},{"OBJECT_NAME":"IRIDIUM 149","OBJECT_ID":"2018-030B","EPOCH":"2026-03-29T05:05:55.126176","MEAN_MOTION":14.34220921,"ECCENTRICITY":0.0002067,"INCLINATION":86.3975,"RA_OF_ASC_NODE":323.8273,"ARG_OF_PERICENTER":84.8224,"MEAN_ANOMALY":275.3207,"EPHEMERIS_TYPE":0,"CLASSIFICATION_TYPE":"U","NORAD_CAT_ID":43250,"ELEMENT_SET_NO":999,"REV_AT_EPOCH":41869,"BSTAR":9.7221e-5,"MEAN_MOTION_DOT":2.92e-6,"MEAN_MOTION_DDOT":0},{"OBJECT_NAME":"IRIDIUM 157","OBJECT_ID":"2018-030C","EPOCH":"2026-03-29T03:52:51.400128","MEAN_MOTION":14.34218077,"ECCENTRICITY":0.0002115,"INCLINATION":86.3979,"RA_OF_ASC_NODE":323.8999,"ARG_OF_PERICENTER":86.5614,"MEAN_ANOMALY":273.5823,"EPHEMERIS_TYPE":0,"CLASSIFICATION_TYPE":"U","NORAD_CAT_ID":43251,"ELEMENT_SET_NO":999,"REV_AT_EPOCH":41866,"BSTAR":3.4834e-5,"MEAN_MOTION_DOT":1.17e-6,"MEAN_MOTION_DDOT":0},{"OBJECT_NAME":"IRIDIUM 140","OBJECT_ID":"2018-030D","EPOCH":"2026-03-29T04:20:15.396000","MEAN_MOTION":14.34218479,"ECCENTRICITY":0.0002096,"INCLINATION":86.398,"RA_OF_ASC_NODE":323.9048,"ARG_OF_PERICENTER":88.1458,"MEAN_ANOMALY":271.9978,"EPHEMERIS_TYPE":0,"CLASSIFICATION_TYPE":"U","NORAD_CAT_ID":43252,"ELEMENT_SET_NO":999,"REV_AT_EPOCH":41872,"BSTAR":5.6226e-5,"MEAN_MOTION_DOT":1.77e-6,"MEAN_MOTION_DDOT":0},{"OBJECT_NAME":"IRIDIUM 145","OBJECT_ID":"2018-030E","EPOCH":"2026-03-29T04:01:59.521728","MEAN_MOTION":14.34217475,"ECCENTRICITY":0.0002273,"INCLINATION":86.3975,"RA_OF_ASC_NODE":323.882,"ARG_OF_PERICENTER":93.4829,"MEAN_ANOMALY":266.6627,"EPHEMERIS_TYPE":0,"CLASSIFICATION_TYPE":"U","NORAD_CAT_ID":43253,"ELEMENT_SET_NO":999,"REV_AT_EPOCH":41865,"BSTAR":1.4376e-5,"MEAN_MOTION_DOT":6.0e-7,"MEAN_MOTION_DDOT":0},{"OBJECT_NAME":"IRIDIUM 146","OBJECT_ID":"2018-030F","EPOCH":"2026-03-29T03:34:35.448096","MEAN_MOTION":14.34218637,"ECCENTRICITY":0.000225,"INCLINATION":86.3978,"RA_OF_ASC_NODE":323.9029,"ARG_OF_PERICENTER":88.4038,"MEAN_ANOMALY":271.7415,"EPHEMERIS_TYPE":0,"CLASSIFICATION_TYPE":"U","NORAD_CAT_ID":43254,"ELEMENT_SET_NO":999,"REV_AT_EPOCH":41866,"BSTAR":8.3466e-5,"MEAN_MOTION_DOT":2.54e-6,"MEAN_MOTION_DDOT":0},{"OBJECT_NAME":"IRIDIUM 148","OBJECT_ID":"2018-030G","EPOCH":"2026-03-29T04:29:23.396640","MEAN_MOTION":14.34218285,"ECCENTRICITY":0.0002177,"INCLINATION":86.3981,"RA_OF_ASC_NODE":323.929,"ARG_OF_PERICENTER":86.252,"MEAN_ANOMALY":273.8924,"EPHEMERIS_TYPE":0,"CLASSIFICATION_TYPE":"U","NORAD_CAT_ID":43255,"ELEMENT_SET_NO":999,"REV_AT_EPOCH":41870,"BSTAR":4.223e-5,"MEAN_MOTION_DOT":1.38e-6,"MEAN_MOTION_DDOT":0},{"OBJECT_NAME":"IRIDIUM 142","OBJECT_ID":"2018-030H","EPOCH":"2026-03-29T03:43:43.497984","MEAN_MOTION":14.34218802,"ECCENTRICITY":0.0002333,"INCLINATION":86.3976,"RA_OF_ASC_NODE":323.8341,"ARG_OF_PERICENTER":91.8168,"MEAN_ANOMALY":268.3295,"EPHEMERIS_TYPE":0,"CLASSIFICATION_TYPE":"U","NORAD_CAT_ID":43256,"ELEMENT_SET_NO":999,"REV_AT_EPOCH":41866,"BSTAR":9.1531e-5,"MEAN_MOTION_DOT":2.76e-6,"MEAN_MOTION_DDOT":0},{"OBJECT_NAME":"IRIDIUM 150","OBJECT_ID":"2018-030J","EPOCH":"2026-03-29T04:38:31.378272","MEAN_MOTION":14.34218424,"ECCENTRICITY":0.0002103,"INCLINATION":86.3979,"RA_OF_ASC_NODE":323.9319,"ARG_OF_PERICENTER":88.2966,"MEAN_ANOMALY":271.8471,"EPHEMERIS_TYPE":0,"CLASSIFICATION_TYPE":"U","NORAD_CAT_ID":43257,"ELEMENT_SET_NO":999,"REV_AT_EPOCH":41869,"BSTAR":7.0719e-5,"MEAN_MOTION_DOT":2.18e-6,"MEAN_MOTION_DDOT":0},{"OBJECT_NAME":"IRIDIUM 143","OBJECT_ID":"2018-030K","EPOCH":"2026-03-29T04:11:07.503360","MEAN_MOTION":14.34217574,"ECCENTRICITY":0.0002224,"INCLINATION":86.3983,"RA_OF_ASC_NODE":324.0293,"ARG_OF_PERICENTER":90.9344,"MEAN_ANOMALY":269.2106,"EPHEMERIS_TYPE":0,"CLASSIFICATION_TYPE":"U","NORAD_CAT_ID":43258,"ELEMENT_SET_NO":999,"REV_AT_EPOCH":41862,"BSTAR":2.5661e-5,"MEAN_MOTION_DOT":9.2e-7,"MEAN_MOTION_DDOT":0},{"OBJECT_NAME":"IRIDIUM 161","OBJECT_ID":"2018-047C","EPOCH":"2026-03-29T03:52:07.961664","MEAN_MOTION":14.43286587,"ECCENTRICITY":0.0002218,"INCLINATION":86.4463,"RA_OF_ASC_NODE":121.9435,"ARG_OF_PERICENTER":84.5689,"MEAN_ANOMALY":275.5765,"EPHEMERIS_TYPE":0,"CLASSIFICATION_TYPE":"U","NORAD_CAT_ID":43478,"ELEMENT_SET_NO":999,"REV_AT_EPOCH":41359,"BSTAR":0.00010696,"MEAN_MOTION_DOT":3.8e-6,"MEAN_MOTION_DDOT":0}]
