IRIDIUM 151             
1 43074U 17083E   26088.20318514  .00000113  00000+0  33286-4 0  9995
2 43074  86.4025 355.4915 0002219  85.2773 274.8676 14.34218192432670
IRIDIUM 134             
1 43075U 17083F   26088.17147370  .00000339  00000+0  11399-3 0  9992
2 43075  86.4027 355.5117 0002152  88.7695 271.3747 14.34218437432634
IRIDIUM 137             
1 43076U 17083G   26088.18416368  .00000355  00000+0  11954-3 0  9995
2 43076  86.4026 355.5975 0002657  84.4324 275.7174 14.34216619432708
IRIDIUM 141             
1 43077U 17083H   26088.17781348  .00000421  00000+0  14340-3 0  9994
2 43077  86.4024 355.4353 0002130  83.5307 276.6131 14.34215115432706
IRIDIUM 153             
1 43078U 17083J   26088.19976093  .00000212  00000+0  68775-4 0  9990
2 43078  86.3979 323.9335 0001853  84.7270 275.4138 14.34218634433814
IRIDIUM 131             
1 43079U 17083K   26088.16512806  .00000292  00000+0  97147-4 0  9999
2 43079  86.4029 355.6212 0002163  82.2776 277.8666 14.34219428432630
IRIDIUM 144             
1 43249U 18030A   26088.13633492  .00000225  00000+0  73253-4 0  9991
2 43249  86.3976 323.8912 0002228  88.8550 271.2901 14.34217607418661
IRIDIUM 149             
1 43250U 18030B   26088.21244359  .00000292  00000+0  97221-4 0  9997
2 43250  86.3975 323.8273 0002067  84.8224 275.3207 14.34220921418697
IRIDIUM 157             
1 43251U 18030C   26088.16170602  .00000117  00000+0  34834-4 0  9998
2 43251  86.3979 323.8999 0002115  86.5614 273.5823 14.34218077418663
IRIDIUM 140             
1 43252U 18030D   26088.18073375  .00000177  00000+0  56226-4 0  9995
2 43252  86.3980 323.9048 0002096  88.1458 271.9978 14.34218479418720
IRIDIUM 145             
1 43253U 18030E   26088.16805002  .00000060  00000+0  14376-4 0  9995
2 43253  86.3975 323.8820 0002273  93.4829 266.6627 14.34217475418659
IRIDIUM 146             
1 43254U 18030F   26088.14902139  .00000254  00000+0  83466-4 0  9994
2 43254  86.3978 323.9029 0002250  88.4038 271.7415 14.34218637418660
IRIDIUM 148             
1 43255U 18030G   26088.18707635  .00000138  00000+0  42230-4 0  9998
2 43255  86.3981 323.9290 0002177  86.2520 273.8924 14.34218285418707
IRIDIUM 142             
1 43256U 18030H   26088.15536456  .00000276  00000+0  91531-4 0  9998
2 43256  86.3976 323.8341 0002333  91.8168 268.3295 14.34218802418662
IRIDIUM 150             
1 43257U 18030J   26088.19341873  .00000218  00000+0  70719-4 0  9991
2 43257  86.3979 323.9319 0002103  88.2966 271.8471 14.34218424418691
IRIDIUM 143             
1 43258U 18030K   26088.17439240  .00000092  00000+0  25661-4 0  9992
2 43258  86.3983 324.0293 0002224  90.9344 269.2106 14.34217574418628
IRIDIUM 161             
1 43478U 18047C   26088.16120326  .00000380  00000+0  10696-3 0  9996
2 43478  86.4463 121.9435 0002218  84.5689 275.5765 14.43286587413594
